[{"OBJECT_NAME":"SKYSAT-A","OBJECT_ID":"2013-066C","EPOCH":"2026-03-09T23:11:31.147872","MEAN_MOTION":15.12354605,"ECCENTRICITY":0.00202509,"INCLINATION":97.395,"RA_OF_ASC_NODE":121.5014,"ARG_OF_PERICENTER":299.3966,"MEAN_ANOMALY":60.5243,"EPHEMERIS_TYPE":0,"CLASSIFICATION_TYPE":"U","NORAD_CAT_ID":39418,"ELEMENT_SET_NO":999,"REV_AT_EPOCH":67348,"BSTAR":0.0002547658,"MEAN_MOTION_DOT":4.374e-5,"MEAN_MOTION_DDOT":0},{"OBJECT_NAME":"STARLINK-5204","OBJECT_ID":"2022-136BC","EPOCH":"2026-03-09T23:47:56.423328","MEAN_MOTION":15.08829767,"ECCENTRICITY":0.00014474,"INCLINATION":53.2189,"RA_OF_ASC_NODE":317.5294,"ARG_OF_PERICENTER":91.0815,"MEAN_ANOMALY":269.0343,"EPHEMERIS_TYPE":0,"CLASSIFICATION_TYPE":"U","NORAD_CAT_ID":54101,"ELEMENT_SET_NO":999,"REV_AT_EPOCH":18724,"BSTAR":-0.00010614396,"MEAN_MOTION_DOT":-1.976e-5,"MEAN_MOTION_DDOT":0}]
